ONEWEB-0492             
1 54114U 22138B   24293.38368672  .00000130  00000+0  29327-3 0  9993
2 54114  87.9151  65.4439 0001848  90.6845 269.4499 13.19724697 96931
ONEWEB-0495             
1 54115U 22138C   24293.43737713  .00000099  00000+0  21452-3 0  9991
2 54115  87.9151  65.4449 0002519 102.1756 257.9658 13.19729344 96921
ONEWEB-0497             
1 54116U 22138D   24293.45001377  .00000081  00000+0  17013-3 0  9993
2 54116  87.9147  65.4250 0001767  95.9635 264.1699 13.19728069 96913
ONEWEB-0499             
1 54117U 22138E   24293.43264210  .00000014  00000+0  34188-5 0  9999
2 54117  87.9151  65.4355 0001801 112.4086 247.7238 13.19726972 96927
ONEWEB-0500             
1 54118U 22138F   24293.43579311  .00000001  00000+0 -28806-4 0  9997
2 54118  87.9149  65.4271 0001714  93.6827 266.4501 13.19729452 96936
ONEWEB-0501             
1 54119U 22138G   24293.84490703 -.00000021  00000+0 -83897-4 0  9994
2 54119  87.9147  65.3419 0002281 101.6100 258.5288 13.19725152 97839
ONEWEB-0502             
1 54120U 22138H   24293.45160139  .00000020  00000+0  18020-4 0  9993
2 54120  87.9147  65.4079 0001951 103.7184 256.4166 13.19723916 96930
ONEWEB-0503             
1 54121U 22138J   24293.36473058  .00000095  00000+0  20460-3 0  9993
2 54121  87.9147  65.4314 0001468 109.2705 250.8586 13.19726975 96916
