<?xml version="1.0" encoding="UTF-8"?>
<ndm xmlns:xsi="http://www.w3.org/2001/XMLSchema-instance" xsi:noNamespaceSchemaLocation="https://sanaregistry.org/r/ndmxml_unqualified/ndmxml-2.0.0-master-2.0.xsd">
<omm id="CCSDS_OMM_VERS" version="2.0">
<header><CREATION_DATE/><ORIGINATOR/></header><body><segment><metadata><OBJECT_NAME>ONEWEB-0492</OBJECT_NAME><OBJECT_ID>2022-138B</OBJECT_ID><CENTER_NAME>EARTH</CENTER_NAME><REF_FRAME>TEME</REF_FRAME><TIME_SYSTEM>UTC</TIME_SYSTEM><MEAN_ELEMENT_THEORY>SGP4</MEAN_ELEMENT_THEORY></metadata><data><meanElements><EPOCH>2024-10-19T09:12:30.532608</EPOCH><MEAN_MOTION>13.19724697</MEAN_MOTION><ECCENTRICITY>.0001848</ECCENTRICITY><INCLINATION>87.9151</INCLINATION><RA_OF_ASC_NODE>65.4439</RA_OF_ASC_NODE><ARG_OF_PERICENTER>90.6845</ARG_OF_PERICENTER><MEAN_ANOMALY>269.4499</MEAN_ANOMALY></meanElements><tleParameters><EPHEMERIS_TYPE>0</EPHEMERIS_TYPE><CLASSIFICATION_TYPE>U</CLASSIFICATION_TYPE><NORAD_CAT_ID>54114</NORAD_CAT_ID><ELEMENT_SET_NO>999</ELEMENT_SET_NO><REV_AT_EPOCH>9693</REV_AT_EPOCH><BSTAR>.29327E-3</BSTAR><MEAN_MOTION_DOT>.13E-5</MEAN_MOTION_DOT><MEAN_MOTION_DDOT>0</MEAN_MOTION_DDOT></tleParameters></data></segment></body></omm>
<omm id="CCSDS_OMM_VERS" version="2.0">
<header><CREATION_DATE/><ORIGINATOR/></header><body><segment><metadata><OBJECT_NAME>ONEWEB-0495</OBJECT_NAME><OBJECT_ID>2022-138C</OBJECT_ID><CENTER_NAME>EARTH</CENTER_NAME><REF_FRAME>TEME</REF_FRAME><TIME_SYSTEM>UTC</TIME_SYSTEM><MEAN_ELEMENT_THEORY>SGP4</MEAN_ELEMENT_THEORY></metadata><data><meanElements><EPOCH>2024-10-19T10:29:49.384032</EPOCH><MEAN_MOTION>13.19729344</MEAN_MOTION><ECCENTRICITY>.0002519</ECCENTRICITY><INCLINATION>87.9151</INCLINATION><RA_OF_ASC_NODE>65.4449</RA_OF_ASC_NODE><ARG_OF_PERICENTER>102.1756</ARG_OF_PERICENTER><MEAN_ANOMALY>257.9658</MEAN_ANOMALY></meanElements><tleParameters><EPHEMERIS_TYPE>0</EPHEMERIS_TYPE><CLASSIFICATION_TYPE>U</CLASSIFICATION_TYPE><NORAD_CAT_ID>54115</NORAD_CAT_ID><ELEMENT_SET_NO>999</ELEMENT_SET_NO><REV_AT_EPOCH>9692</REV_AT_EPOCH><BSTAR>.21452E-3</BSTAR><MEAN_MOTION_DOT>.99E-6</MEAN_MOTION_DOT><MEAN_MOTION_DDOT>0</MEAN_MOTION_DDOT></tleParameters></data></segment></body></omm>
<omm id="CCSDS_OMM_VERS" version="2.0">
<header><CREATION_DATE/><ORIGINATOR/></header><body><segment><metadata><OBJECT_NAME>ONEWEB-0497</OBJECT_NAME><OBJECT_ID>2022-138D</OBJECT_ID><CENTER_NAME>EARTH</CENTER_NAME><REF_FRAME>TEME</REF_FRAME><TIME_SYSTEM>UTC</TIME_SYSTEM><MEAN_ELEMENT_THEORY>SGP4</MEAN_ELEMENT_THEORY></metadata><data><meanElements><EPOCH>2024-10-19T10:48:01.189728</EPOCH><MEAN_MOTION>13.19728069</MEAN_MOTION><ECCENTRICITY>.0001767</ECCENTRICITY><INCLINATION>87.9147</INCLINATION><RA_OF_ASC_NODE>65.4250</RA_OF_ASC_NODE><ARG_OF_PERICENTER>95.9635</ARG_OF_PERICENTER><MEAN_ANOMALY>264.1699</MEAN_ANOMALY></meanElements><tleParameters><EPHEMERIS_TYPE>0</EPHEMERIS_TYPE><CLASSIFICATION_TYPE>U</CLASSIFICATION_TYPE><NORAD_CAT_ID>54116</NORAD_CAT_ID><ELEMENT_SET_NO>999</ELEMENT_SET_NO><REV_AT_EPOCH>9691</REV_AT_EPOCH><BSTAR>.17013E-3</BSTAR><MEAN_MOTION_DOT>.81E-6</MEAN_MOTION_DOT><MEAN_MOTION_DDOT>0</MEAN_MOTION_DDOT></tleParameters></data></segment></body></omm>
<omm id="CCSDS_OMM_VERS" version="2.0">
<header><CREATION_DATE/><ORIGINATOR/></header><body><segment><metadata><OBJECT_NAME>ONEWEB-0499</OBJECT_NAME><OBJECT_ID>2022-138E</OBJECT_ID><CENTER_NAME>EARTH</CENTER_NAME><REF_FRAME>TEME</REF_FRAME><TIME_SYSTEM>UTC</TIME_SYSTEM><MEAN_ELEMENT_THEORY>SGP4</MEAN_ELEMENT_THEORY></metadata><data><meanElements><EPOCH>2024-10-19T10:23:00.277440</EPOCH><MEAN_MOTION>13.19726972</MEAN_MOTION><ECCENTRICITY>.0001801</ECCENTRICITY><INCLINATION>87.9151</INCLINATION><RA_OF_ASC_NODE>65.4355</RA_OF_ASC_NODE><ARG_OF_PERICENTER>112.4086</ARG_OF_PERICENTER><MEAN_ANOMALY>247.7238</MEAN_ANOMALY></meanElements><tleParameters><EPHEMERIS_TYPE>0</EPHEMERIS_TYPE><CLASSIFICATION_TYPE>U</CLASSIFICATION_TYPE><NORAD_CAT_ID>54117</NORAD_CAT_ID><ELEMENT_SET_NO>999</ELEMENT_SET_NO><REV_AT_EPOCH>9692</REV_AT_EPOCH><BSTAR>.34188E-5</BSTAR><MEAN_MOTION_DOT>.14E-6</MEAN_MOTION_DOT><MEAN_MOTION_DDOT>0</MEAN_MOTION_DDOT></tleParameters></data></segment></body></omm>
<omm id="CCSDS_OMM_VERS" version="2.0">
<header><CREATION_DATE/><ORIGINATOR/></header><body><segment><metadata><OBJECT_NAME>ONEWEB-0500</OBJECT_NAME><OBJECT_ID>2022-138F</OBJECT_ID><CENTER_NAME>EARTH</CENTER_NAME><REF_FRAME>TEME</REF_FRAME><TIME_SYSTEM>UTC</TIME_SYSTEM><MEAN_ELEMENT_THEORY>SGP4</MEAN_ELEMENT_THEORY></metadata><data><meanElements><EPOCH>2024-10-19T10:27:32.524704</EPOCH><MEAN_MOTION>13.19729452</MEAN_MOTION><ECCENTRICITY>.0001714</ECCENTRICITY><INCLINATION>87.9149</INCLINATION><RA_OF_ASC_NODE>65.4271</RA_OF_ASC_NODE><ARG_OF_PERICENTER>93.6827</ARG_OF_PERICENTER><MEAN_ANOMALY>266.4501</MEAN_ANOMALY></meanElements><tleParameters><EPHEMERIS_TYPE>0</EPHEMERIS_TYPE><CLASSIFICATION_TYPE>U</CLASSIFICATION_TYPE><NORAD_CAT_ID>54118</NORAD_CAT_ID><ELEMENT_SET_NO>999</ELEMENT_SET_NO><REV_AT_EPOCH>9693</REV_AT_EPOCH><BSTAR>-.28806E-4</BSTAR><MEAN_MOTION_DOT>.1E-7</MEAN_MOTION_DOT><MEAN_MOTION_DDOT>0</MEAN_MOTION_DDOT></tleParameters></data></segment></body></omm>
<omm id="CCSDS_OMM_VERS" version="2.0">
<header><CREATION_DATE/><ORIGINATOR/></header><body><segment><metadata><OBJECT_NAME>ONEWEB-0501</OBJECT_NAME><OBJECT_ID>2022-138G</OBJECT_ID><CENTER_NAME>EARTH</CENTER_NAME><REF_FRAME>TEME</REF_FRAME><TIME_SYSTEM>UTC</TIME_SYSTEM><MEAN_ELEMENT_THEORY>SGP4</MEAN_ELEMENT_THEORY></metadata><data><meanElements><EPOCH>2024-10-19T20:16:39.967392</EPOCH><MEAN_MOTION>13.19725152</MEAN_MOTION><ECCENTRICITY>.0002281</ECCENTRICITY><INCLINATION>87.9147</INCLINATION><RA_OF_ASC_NODE>65.3419</RA_OF_ASC_NODE><ARG_OF_PERICENTER>101.6100</ARG_OF_PERICENTER><MEAN_ANOMALY>258.5288</MEAN_ANOMALY></meanElements><tleParameters><EPHEMERIS_TYPE>0</EPHEMERIS_TYPE><CLASSIFICATION_TYPE>U</CLASSIFICATION_TYPE><NORAD_CAT_ID>54119</NORAD_CAT_ID><ELEMENT_SET_NO>999</ELEMENT_SET_NO><REV_AT_EPOCH>9783</REV_AT_EPOCH><BSTAR>-.83897E-4</BSTAR><MEAN_MOTION_DOT>-.21E-6</MEAN_MOTION_DOT><MEAN_MOTION_DDOT>0</MEAN_MOTION_DDOT></tleParameters></data></segment></body></omm>
<omm id="CCSDS_OMM_VERS" version="2.0">
<header><CREATION_DATE/><ORIGINATOR/></header><body><segment><metadata><OBJECT_NAME>ONEWEB-0502</OBJECT_NAME><OBJECT_ID>2022-138H</OBJECT_ID><CENTER_NAME>EARTH</CENTER_NAME><REF_FRAME>TEME</REF_FRAME><TIME_SYSTEM>UTC</TIME_SYSTEM><MEAN_ELEMENT_THEORY>SGP4</MEAN_ELEMENT_THEORY></metadata><data><meanElements><EPOCH>2024-10-19T10:50:18.360096</EPOCH><MEAN_MOTION>13.19723916</MEAN_MOTION><ECCENTRICITY>.0001951</ECCENTRICITY><INCLINATION>87.9147</INCLINATION><RA_OF_ASC_NODE>65.4079</RA_OF_ASC_NODE><ARG_OF_PERICENTER>103.7184</ARG_OF_PERICENTER><MEAN_ANOMALY>256.4166</MEAN_ANOMALY></meanElements><tleParameters><EPHEMERIS_TYPE>0</EPHEMERIS_TYPE><CLASSIFICATION_TYPE>U</CLASSIFICATION_TYPE><NORAD_CAT_ID>54120</NORAD_CAT_ID><ELEMENT_SET_NO>999</ELEMENT_SET_NO><REV_AT_EPOCH>9693</REV_AT_EPOCH><BSTAR>.1802E-4</BSTAR><MEAN_MOTION_DOT>.2E-6</MEAN_MOTION_DOT><MEAN_MOTION_DDOT>0</MEAN_MOTION_DDOT></tleParameters></data></segment></body></omm>
<omm id="CCSDS_OMM_VERS" version="2.0">
<header><CREATION_DATE/><ORIGINATOR/></header><body><segment><metadata><OBJECT_NAME>ONEWEB-0503</OBJECT_NAME><OBJECT_ID>2022-138J</OBJECT_ID><CENTER_NAME>EARTH</CENTER_NAME><REF_FRAME>TEME</REF_FRAME><TIME_SYSTEM>UTC</TIME_SYSTEM><MEAN_ELEMENT_THEORY>SGP4</MEAN_ELEMENT_THEORY></metadata><data><meanElements><EPOCH>2024-10-19T08:45:12.722112</EPOCH><MEAN_MOTION>13.19726975</MEAN_MOTION><ECCENTRICITY>.0001468</ECCENTRICITY><INCLINATION>87.9147</INCLINATION><RA_OF_ASC_NODE>65.4314</RA_OF_ASC_NODE><ARG_OF_PERICENTER>109.2705</ARG_OF_PERICENTER><MEAN_ANOMALY>250.8586</MEAN_ANOMALY></meanElements><tleParameters><EPHEMERIS_TYPE>0</EPHEMERIS_TYPE><CLASSIFICATION_TYPE>U</CLASSIFICATION_TYPE><NORAD_CAT_ID>54121</NORAD_CAT_ID><ELEMENT_SET_NO>999</ELEMENT_SET_NO><REV_AT_EPOCH>9691</REV_AT_EPOCH><BSTAR>.2046E-3</BSTAR><MEAN_MOTION_DOT>.95E-6</MEAN_MOTION_DOT><MEAN_MOTION_DDOT>0</MEAN_MOTION_DDOT></tleParameters></data></segment></body></omm>

</ndm>
